KUIPER-00061            
1 64521U 25134X   25241.25002315 -.01594962  00000+0 -51730-1 0  9999
2 64521  51.8772   8.8321 0005842 341.9052 169.2761 15.34893397  5329
KUIPER-00062            
1 64522U 25134Y   25241.25002315 -.00924620  00000+0 -60803-1 0  9998
2 64522  51.9047  12.2665 0008671   2.4820 316.7608 15.09942549  5887
KUIPER-00063            
1 64523U 25134Z   25241.25002315 -.01159405  00000+0 -74197-1 0  9992
2 64523  51.8898  11.2558 0006066 306.5864  95.1661 15.11136146  4790
KUIPER-00064            
1 64524U 25134AA  25240.55054617  .00025924  00000+0  11061-2 0  9994
2 64524  51.8806  13.5124 0002521  65.4365 294.6878 15.22739413 11380
KUIPER-00065            
1 64525U 25134AB  25241.25002315 -.00916339  00000+0 -67466-1 0  9991
2 64525  51.9061  13.1372 0009090 358.7801 115.0458 15.05791225  5515
KUIPER-00066            
1 64526U 25134AC  25240.89885613  .00019860  00000+0  91801-3 0  9994
2 64526  51.8880  12.0113 0005826 345.7718  14.3097 15.20147927 11430
KUIPER-00069            
1 64816U 25151A   25241.25085654  .00043047  00000+0  11920-2 0  9990
2 64816  51.8783  75.4114 0005509 297.0025  63.0399 15.36539354  7938
KUIPER-00070            
1 64817U 25151B   25241.25002315 -.01890132  00000+0 -12498+0 0  9990
2 64817  51.8917  78.8134 0006425 326.4584 201.9096 15.10504362  5648
